#cP2015  4 17 12  0  0.00000000     192 ORBIT IGb08 HLM  IGS
## 1840 475200.00000000   900.00000000 57129 0.5000000000000
+   30   G01G02G03G04G05G06G07G09G10G11G12G13G14G15G16G17G18
+        G19G20G21G22G23G24G25G27G28G29G30G31G32  0  0  0  0
+          0  0  0  0  0  0  0  0  0  0  0  0  0  0  0  0  0
+          0  0  0  0  0  0  0  0  0  0  0  0  0  0  0  0  0
+          0  0  0  0  0  0  0  0  0  0  0  0  0  0  0  0  0
++         3  4  3  4  3  4  4  3  3  4  4  4  5  4  5  3  4
++         3  4  4  4  4  5  4  3  4  4  4  4  5  0  0  0  0
++         0  0  0  0  0  0  0  0  0  0  0  0  0  0  0  0  0
++         0  0  0  0  0  0  0  0  0  0  0  0  0  0  0  0  0
++         0  0  0  0  0  0  0  0  0  0  0  0  0  0  0  0  0
%c G  cc GPS ccc cccc cccc cccc cccc ccccc ccccc ccccc ccccc
%c cc cc ccc ccc cccc cccc cccc cccc ccccc ccccc ccccc ccccc
%f  1.2500000  1.025000000  0.00000000000  0.000000000000000
%f  0.0000000  0.000000000  0.00000000000  0.000000000000000
%i    0    0    0    0      0      0      0      0         0
%i    0    0    0    0      0      0      0      0         0
/* ULTRA ORBIT COMBINATION 18406_12 (57130.500) FROM:       
/* cou emu esu gfu gou ngu siu usu whu                      
/* REFERENCED TO emu CLOCK AND TO WEIGHTED MEAN POLE:       
/* PCV:IGS08_1840 OL/AL:FES2004  NONE     Y  ORB:CMB CLK:CMB
*  2015  4 18  8 15  0.00000000
PG01   1974.072787  15244.913314 -21694.761944     -6.642123  9  9  8 214       
PG02  18774.518509 -15151.980989  10936.457456    560.480471  8  9  6 204       
PG03  10548.968577  21070.957971 -12203.494221    300.197082 11  9  9 205       
PG04  -8224.881502  17215.760070 -18690.226363    -11.707625  8  9  4 165       
PG05   7666.100446 -13737.235533  21335.113197   -252.395907  6 10  5 157       
PG06  25679.672279  -5894.484066  -3318.189069    138.735062  7 11 11 170       
PG07  16440.507056   8823.171963  19141.998253    456.129403  8  8 10 177       
PG09   9049.585054  17556.811178  17738.778883   -139.449501  7  6  8 191       
PG10  21384.126070   5016.246509  14839.734280   -171.370315  7  7  8 225       
PG11  -2270.468319  19908.543276 -17904.100507   -572.206704 11  9  5 178       
PG12  -7409.738198 -20993.136124 -14750.586348    285.757213 10  5  4 190       
PG13  12814.016923 -21998.037533   7643.970924   -106.698605  6  4  8 136       
PG14 -15715.786792   1906.643302 -21064.390550     70.024388  6 14 10 190       
PG15   2872.469509 -26161.333037  -1979.317815   -244.225696  9  6  7 184       
PG16  -8288.140282  12171.807652  22001.693829   -137.575063 12  9  9 207       
PG17  15250.934722   -522.895937 -21423.344122   -166.918425  9 10  8 210       
PG18 -21698.840400 -14953.378310  -3956.948044    394.812386  6 12 11 197       
PG19  -8008.928909  25052.362861    142.225693   -507.692911 11 10  5 213       
PG20  15121.390712  -7568.148855  20350.881093    311.399227  7  9  8 206       
PG21 -19488.624011  -7076.301349  17499.667752   -437.701205  8 12  8 212       
PG22 -21917.706591  -5058.203082 -14029.867075    340.975087  4 14 12 215       
PG23   2246.851034  24198.405469  10319.000178   -102.653245  9  8  9 161       
PG24   1235.676380 -16183.441001 -21035.479575    -46.821098 13 11  1 228       
PG25 -17653.030062 -19584.262983  -3982.886075    -20.813174  6  9  8 119       
PG27 -12233.693352  20705.226046  11137.211426     65.803866  8  9  6 133       
PG28  21011.684834  11240.303979 -11203.155203    433.781013  9 10  9 187       
PG29  -5990.276055 -20183.700850  16252.301879    605.021152  9 10  4 190       
PG30  23881.942703   2520.969243  11399.564529    -70.110734  6  6  8 170       
PG31 -25686.399546   7465.659760    156.745600    318.302194  6 11 12 223       
PG32  -3624.780263  17217.211458 -20058.370953   -173.176880 13  6 13 218       
*  2015  4 18  8 30  0.00000000
PG01   -350.460219  16009.371945 -21208.625535     -6.641677  9  9  9 212       
PG02  19888.335195 -15262.196107   8400.844167    560.482748  8  9  7 204       
PG03   9248.650478  20240.843762 -14457.096954    300.209010 11  9  8 205       
PG04 -10167.653138  17751.372514 -17117.666495    -11.708548  8  8  4 160       
PG05   9577.171424 -12174.804366  21526.348234   -252.391574  6 10  5 158       
PG06  25256.351142  -5477.919125  -6108.127929    138.743882  8 12 11 174       
PG07  14349.244991   9599.529114  20383.353799    456.132140  8  8  9 172       
PG09   8548.978975  19428.584200  15944.613628   -139.456597  6  6  8 190       
PG10  22470.170936   6243.367719  12707.312434   -171.371945  7  8  8 226       
PG11  -3898.366420  20918.181110 -16347.126472   -572.208827 11  9  6 177       
PG12  -6036.850332 -19861.697952 -16793.844677    285.759592 10  6  4 217       
PG13  12701.380125 -20947.657337  10268.352349   -106.701534  6  5  8 138       
PG14 -15135.709279   -515.551623 -21571.008688     70.021953  6 14 10 187       
PG15   3233.722883 -26170.484127    839.041601   -244.227899  9  6  8 185       
PG16 -10129.762567  10427.585983  22158.683302   -137.571869 12  9  9 207       
PG17  14722.558559   1951.967766 -21722.716914   -166.920280  9  9  8 209       
PG18 -21758.329339 -15429.769774  -1211.051089    394.815147  7 11 11 199       
PG19  -8212.505020  24783.517529   3034.391377   -507.693783 10  9  4 216       
PG20  16922.778416  -6107.226274  19418.666284    311.402089  7  8  8 207       
PG21 -17705.098454  -7902.027260  19004.263976   -437.704293  9 12  7 213       
PG22 -22914.922033  -6233.871752 -11843.741388    340.978852  4 13 12 214       
PG23   1772.509482  25156.635514   7725.342513   -102.655422  8  8  9 159       
PG24   3472.083220 -16928.236711 -20167.047479    -46.821593 13 11  4 226       
PG25 -17074.737559 -19337.348544  -6776.308435    -20.816170  7  9  8  93       
PG27 -12187.459404  19276.691135  13507.829418     65.806289  8  9  6 135       
PG28  21763.819094  12202.454696  -8609.523197    433.783336  9 11  9 190       
PG29  -5439.700874 -21833.847258  14181.703833    605.023253  9 10  5 189       
PG30  22553.564511   3111.552226  13715.735942    -70.107088  7  7  7 173       
PG31 -25593.522149   7237.997221  -2702.444051    318.301285  7 11 12 224       
PG32  -5324.514347  15614.981960 -20922.993769   -173.168288 12  7 13 218       
*  2015  4 18  8 45  0.00000000
PG01  -2563.938528  16865.606454 -20358.163930     -6.641231  9  9  9 214       
PG02  20730.529781 -15300.036631   5718.702712    560.484761  8  9  7 205       
PG03   7714.226090  19334.463282 -16461.260837    300.220944 11  9  7 206       
PG04 -11909.679988  18303.573322 -15254.299900    -11.709600  9  8  5 160       
PG05  11562.671243 -10710.149299  21345.521036   -252.387054  6 10  5 153       
PG06  24570.435037  -4917.567141  -8792.881713    138.752682  8 12 10 173       
PG07  12189.147724  10534.005771  21279.892318    456.134631  9  8  9 171       
PG09   8170.946263  21106.468405  13875.675183   -139.463581  7  6  8 190       
PG10  23412.878093   7256.460707  10356.122061   -171.374237  7  8  8 225       
PG11  -5348.898133  21870.555524 -14517.317796   -572.211336 11  8  6 176       
PG12  -4435.170815 -18674.386655 -18552.648160    285.762562 10  7  4 193       
PG13  12581.435442 -19611.252105  12716.039069   -106.704866  5  5  8 140       
PG14 -14676.346400  -2999.204327 -21697.817989     70.019135  6 14 10 186       
PG15   3570.646460 -25877.982939   3642.657965   -244.229852  9  6  8 183       
PG16 -12061.238145   8795.360678  21931.891240   -137.568468 11  9 10 207       
PG17  14324.320394   4461.570050 -21637.771468   -166.921874  9  9  8 211       
PG18 -21592.601376 -15717.847962   1555.406910    394.817308  8 11 11 199       
PG19  -8361.153974  24203.807915   5872.660186   -507.695059 10  9  4 218       
PG20  18684.406277  -4800.464704  18148.954217    311.406080  7  9  7 206       
PG21 -15830.275030  -8874.705901  20202.607286   -437.707547  9 12  6 216       
PG22 -23756.134003  -7207.862720  -9453.235263    340.982427  4 13 12 215       
PG23   1382.337973  25837.260695   4995.944593   -102.657452  8  8  9 155       
PG24   5561.379641 -17738.444238 -18951.516408    -46.822750 13 10  6 226       
PG25 -16236.845271 -18937.645082  -9454.565231    -20.819100  7  9  9  73       
PG27 -12186.867360  17593.827859  15644.567486     65.808682  7  9  6 132       
PG28  22337.585639  12915.768565  -5864.857706    433.785475 10 11  9 194       
PG29  -5021.836829 -23266.943587  11868.066141    605.024909  9  9  5 189       
PG30  21021.792624   3850.004293  15796.371776    -70.103435  7  7  7 177       
PG31 -25216.190584   6888.260384  -5516.005105    318.300321  8 10 11 225       
PG32  -7164.672926  14046.142091 -21430.997049   -173.159569 12  9 13 217       
EOF
